NORAD_CAT_ID,OBJECT_NAME,OBJECT_TYPE,EPOCH,MEAN_MOTION,ECCENTRICITY,INCLINATION,RA_OF_ASC_NODE,ARG_OF_PERICENTER,MEAN_ANOMALY,BSTAR,MEAN_MOTION_DOT,MEAN_MOTION_DDOT,TLE_LINE0,TLE_LINE1,TLE_LINE2,SEMIMAJOR_AXIS,PERIOD,APOGEE,PERIGEE,DECAYED
56806.0,STARLINK-6072,PAYLOAD,2023-07-16 22:37:20,15.69922081,0.0003248,70.0,282.0807,275.5463,84.5362,2.3966e-05,2.67e-05,0.0,0 STARLINK-6072,1 56806U 23078AR  23197.94260220  .00002670  00000-0  23966-4 0  9997,2 56806  70.0000 282.0807 0003248 275.5463  84.5362 15.69922081  7637,6737.257,91.724,361.31,356.934,0.0
56806.0,STARLINK-6072,PAYLOAD,2023-07-17 16:58:22,15.69935745,0.0003273,69.9991,279.9314,279.5515,80.5311,6.4214e-05,7.519e-05,0.0,0 STARLINK-6072,1 56806U 23078AR  23198.70720077  .00007519  00000-0  64214-4 0  9991,2 56806  69.9991 279.9314 0003273 279.5515  80.5311 15.69935745  7755,6737.218,91.723,361.288,356.878,0.0
56806.0,STARLINK-6072,PAYLOAD,2023-07-18 08:15:53,15.69918756,0.000313,69.9986,278.1396,270.6776,89.4061,8.0128e-06,7.51e-06,0.0,0 STARLINK-6072,1 56806U 23078AR  23199.34437291  .00000751  00000-0  80128-5 0  9999,2 56806  69.9986 278.1396 0003130 270.6776  89.4061 15.69918756  7857,6737.266,91.724,361.24,357.023,0.0
56806.0,STARLINK-6072,PAYLOAD,2023-07-18 17:26:24,15.69930388,0.000325,69.9984,277.0653,268.8532,91.2292,2.3652e-05,2.633e-05,0.0,0 STARLINK-6072,1 56806U 23078AR  23199.72666853  .00002633  00000-0  23652-4 0  9998,2 56806  69.9984 277.0653 0003250 268.8532  91.2292 15.69930388  7910,6737.233,91.724,361.288,356.909,0.0
56806.0,STARLINK-6072,PAYLOAD,2023-07-19 02:36:55,15.69907174,0.0003493,69.9979,275.9897,267.5402,92.5394,-2.1519e-05,-2.798e-05,0.0,0 STARLINK-6072,1 56806U 23078AR  23200.10897941 -.00002798  00000-0 -21519-4 0  9991,2 56806  69.9979 275.9897 0003493 267.5402  92.5394 15.69907174  7972,6737.3,91.725,361.518,356.811,0.0
56806.0,STARLINK-6072,PAYLOAD,2023-07-19 10:15:41,15.69926644,0.0003556,69.9983,275.0943,262.3229,97.7563,0.0001244,0.00014774,0.0,0 STARLINK-6072,1 56806U 23078AR  23200.42756003  .00014774  00000-0  12440-3 0  9996,2 56806  69.9983 275.0943 0003556 262.3229  97.7563 15.69926644  8025,6737.244,91.724,361.505,356.713,0.0
56806.0,STARLINK-6072,PAYLOAD,2023-07-19 17:54:26,15.69949047,0.0003665,69.9984,274.1986,263.4035,96.6744,0.00027413,0.00032914,0.0,0 STARLINK-6072,1 56806U 23078AR  23200.74614120  .00032914  00000-0  27413-3 0  9996,2 56806  69.9984 274.1986 0003665 263.4035  96.6744 15.69949047  8077,6737.18,91.723,361.514,356.576,0.0
56806.0,STARLINK-6072,PAYLOAD,2023-07-20 15:18:58,15.69939898,0.0003579,69.9982,271.6907,264.5507,95.5281,0.00017221,0.00020559,0.0,0 STARLINK-6072,1 56806U 23078AR  23201.63817266  .00020559  00000-0  17221-3 0  9999,2 56806  69.9982 271.6907 0003579 264.5507  95.5281 15.69939898  8213,6737.206,91.723,361.482,356.66,0.0
56806.0,STARLINK-6072,PAYLOAD,2023-07-21 02:01:13,15.69934122,0.0003543,69.998,270.4365,263.7271,96.3521,2.4098e-05,2.687e-05,0.0,0 STARLINK-6072,1 56806U 23078AR  23202.08418691  .00002687  00000-0  24098-4 0  9991,2 56806  69.9980 270.4365 0003543 263.7271  96.3521 15.69934122  8284,6737.222,91.724,361.474,356.7,0.0
56806.0,STARLINK-6072,PAYLOAD,2023-07-21 17:18:45,15.69921784,0.0003697,69.9981,268.6452,269.3964,90.6808,3.8306e-06,2.48e-06,0.0,0 STARLINK-6072,1 56806U 23078AR  23202.72135656  .00000248  00000-0  38306-5 0  9998,2 56806  69.9981 268.6452 0003697 269.3964  90.6808 15.69921784  8388,6737.258,91.724,361.614,356.632,0.0
56806.0,STARLINK-6072,PAYLOAD,2023-07-24 06:28:50,15.69942263,0.0003759,69.9988,261.4788,271.0735,89.003,0.00012682,0.00015076,0.0,0 STARLINK-6072,1 56806U 23078AR  23205.27002505  .00015076  00000-0  12682-3 0  9999,2 56806  69.9988 261.4788 0003759 271.0735  89.0030 15.69942263  8523,6737.199,91.723,361.597,356.532,0.0
56806.0,STARLINK-6072,PAYLOAD,2023-07-25 11:32:07,15.69945601,0.0004156,69.999,258.0749,276.556,83.5162,0.00015672,0.00018693,0.0,0 STARLINK-6072,1 56806U 23078AR  23206.48064423  .00018693  00000-0  15672-3 0  9990,2 56806  69.9990 258.0749 0004156 276.5560  83.5162 15.69945601  8718,6737.19,91.723,361.855,356.255,0.0
56806.0,STARLINK-6072,PAYLOAD,2023-07-26 05:53:09,15.69936292,0.0003589,69.9981,255.9243,270.6849,89.3935,8.1662e-05,9.623e-05,0.0,0 STARLINK-6072,1 56806U 23078AR  23207.24524420  .00009623  00000-0  81662-4 0  9999,2 56806  69.9981 255.9243 0003589 270.6849  89.3935 15.69936292  8838,6737.216,91.723,361.499,356.663,0.0
56806.0,STARLINK-6072,PAYLOAD,2023-07-26 15:03:39,15.69933824,0.0003682,69.9981,254.8494,269.7185,90.3588,4.5254e-05,5.234e-05,0.0,0 STARLINK-6072,1 56806U 23078AR  23207.62754297  .00005234  00000-0  45254-4 0  9999,2 56806  69.9981 254.8494 0003682 269.7185  90.3588 15.69933824  9150,6737.223,91.724,361.569,356.608,0.0
56806.0,STARLINK-6072,PAYLOAD,2023-07-27 15:31:42,15.69920671,0.0003657,69.9981,251.9837,267.7217,92.356,4.3132e-06,3.06e-06,0.0,0 STARLINK-6072,1 56806U 23078AR  23208.64701590  .00000306  00000-0  43132-5 0  9999,2 56806  69.9981 251.9837 0003657 267.7217  92.3560 15.69920671  9311,6737.261,91.724,361.59,356.662,0.0
56806.0,STARLINK-6072,PAYLOAD,2023-07-27 20:06:57,15.69935906,0.0003173,69.9986,251.446,268.4768,91.6064,5.9529e-05,6.954e-05,0.0,0 STARLINK-6072,1 56806U 23078AR  23208.83816450  .00006954  00000-0  59529-4 0  9993,2 56806  69.9986 251.4460 0003173 268.4768  91.6064 15.69935906  9087,6737.217,91.723,361.22,356.945,0.0
56806.0,STARLINK-6072,PAYLOAD,2023-07-28 05:17:28,15.69915531,0.0003418,69.9974,250.3695,268.9643,91.1161,-2.0667e-06,-4.61e-06,0.0,0 STARLINK-6072,1 56806U 23078AR  23209.22046546 -.00000461  00000-0 -20667-5 0  9999,2 56806  69.9974 250.3695 0003418 268.9643  91.1161 15.69915531  9402,6737.276,91.725,361.443,356.838,0.0
56806.0,STARLINK-6072,PAYLOAD,2023-07-28 14:27:59,15.69926076,0.0003159,69.9976,249.2961,265.9473,94.1361,1.9968e-05,2.189e-05,0.0,0 STARLINK-6072,1 56806U 23078AR  23209.60276775  .00002189  00000-0  19968-4 0  9998,2 56806  69.9976 249.2961 0003159 265.9473  94.1361 15.69926076  9464,6737.245,91.724,361.239,356.982,0.0
56806.0,STARLINK-6072,PAYLOAD,2023-07-29 10:20:47,15.69890241,0.0003194,69.9984,246.9684,255.229,104.8551,0.00025105,0.00030039,0.0,0 STARLINK-6072,1 56806U 23078AR  23210.43110142  .00030039  00000-0  25105-3 0  9990,2 56806  69.9984 246.9684 0003194 255.2290 104.8551 15.69890241  9595,6737.348,91.726,361.365,357.061,0.0
56806.0,STARLINK-6072,PAYLOAD,2023-07-29 19:31:16,15.69928111,0.000309,69.9976,245.8921,266.091,93.9932,2.5617e-06,9.5e-07,0.0,0 STARLINK-6072,1 56806U 23078AR  23210.81338440  .00000095  00000-0  25617-5 0  9994,2 56806  69.9976 245.8921 0003090 266.0910  93.9932 15.69928111  9658,6737.24,91.724,361.186,357.023,0.0
56806.0,STARLINK-6072,PAYLOAD,2023-07-30 13:52:18,15.69923248,0.0002773,69.9973,243.7398,269.2476,90.8402,1.5241e-05,1.62e-05,0.0,0 STARLINK-6072,1 56806U 23078AR  23211.57798853  .00001620  00000-0  15241-4 0  9992,2 56806  69.9973 243.7398 0002773 269.2476  90.8402 15.69923248  9776,6737.254,91.724,360.987,357.25,0.0
56806.0,STARLINK-6072,PAYLOAD,2023-07-31 02:06:18,15.69931586,0.0003118,69.9981,242.3094,263.9613,96.1228,1.2448e-05,1.285e-05,0.0,0 STARLINK-6072,1 56806U 23078AR  23212.08771472  .00001285  00000-0  12448-4 0  9990,2 56806  69.9981 242.3094 0003118 263.9613  96.1228 15.69931586  9859,6737.23,91.724,361.195,356.994,0.0
56806.0,STARLINK-6072,PAYLOAD,2023-07-31 09:45:05,15.69910115,0.0002944,69.9977,241.4131,262.2906,97.7956,-2.1071e-05,-2.744e-05,0.0,0 STARLINK-6072,1 56806U 23078AR  23212.40630999 -.00002744  00000-0 -21071-4 0  9999,2 56806  69.9977 241.4131 0002944 262.2906  97.7956 15.69910115  9905,6737.291,91.725,361.14,357.173,0.0
56806.0,STARLINK-6072,PAYLOAD,2023-07-31 14:20:20,15.69921586,0.0002889,69.997,240.8757,261.3398,98.747,7.4061e-06,6.78e-06,0.0,0 STARLINK-6072,1 56806U 23078AR  23212.59745758  .00000678  00000-0  74061-5 0  9999,2 56806  69.9970 240.8757 0002889 261.3398  98.7470 15.69921586  9937,6737.258,91.724,361.07,357.177,0.0
56806.0,STARLINK-6072,PAYLOAD,2023-08-01 02:34:20,15.69931574,0.0003159,69.9979,239.443,264.6209,95.4626,2.4157e-05,2.694e-05,0.0,0 STARLINK-6072,1 56806U 23078AR  23213.10718358  .00002694  00000-0  24157-4 0  9993,2 56806  69.9979 239.4430 0003159 264.6209  95.4626 15.69931574 10012,6737.23,91.724,361.223,356.966,0.0
56806.0,STARLINK-6072,PAYLOAD,2023-08-01 11:44:51,15.69921325,0.0003341,69.9981,238.3662,270.1041,89.9772,7.9573e-06,7.44e-06,0.0,0 STARLINK-6072,1 56806U 23078AR  23213.48948916  .00000744  00000-0  79573-5 0  9996,2 56806  69.9981 238.3662 0003341 270.1041  89.9772 15.69921325 10078,6737.259,91.724,361.375,356.873,0.0
56806.0,STARLINK-6072,PAYLOAD,2023-08-02 13:44:38,15.69925498,0.0003226,69.998,235.3234,259.8206,100.2626,2.8164e-05,3.175e-05,0.0,0 STARLINK-6072,1 56806U 23078AR  23214.57267254  .00003175  00000-0  28164-4 0  9996,2 56806  69.9980 235.3234 0003226 259.8206 100.2626 15.69925498 10247,6737.247,91.724,361.286,356.939,0.0
56806.0,STARLINK-6072,PAYLOAD,2023-08-03 09:37:25,15.69912924,0.0002967,69.9999,232.9949,252.1279,107.9593,-1.1538e-05,-1.599e-05,0.0,0 STARLINK-6072,1 56806U 23078AR  23215.40099443 -.00001599  00000-0 -11538-4 0  9999,2 56806  69.9999 232.9949 0002967 252.1279 107.9593 15.69912924 10371,6737.283,91.725,361.147,357.149,0.0
56806.0,STARLINK-6072,PAYLOAD,2023-08-04 02:26:41,15.69926259,0.0003704,69.9974,231.0214,266.9265,93.1507,1.7955e-05,1.947e-05,0.0,0 STARLINK-6072,1 56806U 23078AR  23216.10187343  .00001947  00000-0  17955-4 0  9998,2 56806  69.9974 231.0214 0003704 266.9265  93.1507 15.69926259 10486,6737.245,91.724,361.605,356.614,0.0
56806.0,STARLINK-6072,PAYLOAD,2023-08-04 13:08:57,15.69919261,0.0003128,69.9992,229.7704,266.4652,93.6186,5.717e-07,-1.44e-06,0.0,0 STARLINK-6072,1 56806U 23078AR  23216.54789330 -.00000144  00000-0  57170-6 0  9994,2 56806  69.9992 229.7704 0003128 266.4652  93.6186 15.69919261 10550,6737.265,91.724,361.237,357.023,0.0
